[{"OBJECT_NAME":"KUIPER-00172","OBJECT_ID":"2025-217Z","EPOCH":"2026-03-09T22:00:01.999584","MEAN_MOTION":14.79971326,"ECCENTRICITY":8.187e-5,"INCLINATION":51.8996,"RA_OF_ASC_NODE":17.7852,"ARG_OF_PERICENTER":353.3149,"MEAN_ANOMALY":271.5912,"EPHEMERIS_TYPE":0,"CLASSIFICATION_TYPE":"U","NORAD_CAT_ID":65785,"ELEMENT_SET_NO":999,"REV_AT_EPOCH":375,"BSTAR":-0.0031208679,"MEAN_MOTION_DOT":-0.0002395,"MEAN_MOTION_DDOT":0},{"OBJECT_NAME":"COSMOS 2251 DEB","OBJECT_ID":"1993-036BTW","EPOCH":"2026-03-07T21:32:57.301152","MEAN_MOTION":14.76519869,"ECCENTRICITY":0.00306563,"INCLINATION":73.9427,"RA_OF_ASC_NODE":37.4857,"ARG_OF_PERICENTER":172.8183,"MEAN_ANOMALY":217.2496,"EPHEMERIS_TYPE":0,"CLASSIFICATION_TYPE":"U","NORAD_CAT_ID":38486,"ELEMENT_SET_NO":999,"REV_AT_EPOCH":76690,"BSTAR":0.0029833255,"MEAN_MOTION_DOT":0.00020987,"MEAN_MOTION_DDOT":0}]
